COSMOS 2433 (720)       
1 32275U 07052A   24086.16016602 -.00000059  00000+0  00000+0 0  9998
2 32275  65.9623 343.1525 0001992 293.6398  66.3939  2.13104077127737
COSMOS 2432 (719)       
1 32276U 07052B   24087.40326935 -.00000056  00000+0  00000+0 0  9997
2 32276  65.9768 343.2236 0011140 333.9420 206.2524  2.13103349127789
COSMOS 2434 (721)       
1 32393U 07065A   24086.76841562  .00000023  00000+0  00000+0 0  9990
2 32393  64.3246 219.3662 0003703  77.9803 280.6271  2.13103188126454
COSMOS 2436 (723)       
1 32395U 07065C   24086.59071302  .00000021  00000+0  00000+0 0  9998
2 32395  64.3333 219.4359 0016574   5.6308 351.9189  2.13102944126409
COSMOS 2456 (730)       
1 36111U 09070A   24087.50603196  .00000052  00000+0  00000+0 0  9994
2 36111  64.5766  98.7590 0006306 302.0178  58.4717  2.13099106111132
COSMOS 2457 (733)       
1 36112U 09070B   24087.55449081  .00000051  00000+0  00000+0 0  9990
2 36112  64.5610  98.6179 0003452 202.3446 327.7263  2.13101281111138
COSMOS 2460 (732)       
1 36402U 10007C   24087.54503806 -.00000054  00000+0  00000+0 0  9993
2 36402  65.8199 341.7866 0002350  16.6318 137.0736  2.13106304109439
COSMOS 2476 (744)       
1 37867U 11064A   24087.25271543  .00000054  00000+0  00000+0 0  9990
2 37867  64.8516 100.3722 0024533 241.2548 196.0194  2.13101740 96465
COSMOS 2477 (745)       
1 37868U 11064B   24086.54593340  .00000056  00000+0  00000+0 0  9996
2 37868  64.8586 100.4680 0021767 242.6471 190.1619  2.13101571 96440
COSMOS 2475 (743)       
1 37869U 11064C   24087.48054854  .00000054  00000+0  00000+0 0  9991
2 37869  64.8662 100.4503 0026945 256.1083 132.3591  2.13101835 96475
COSMOS 2485 (747)       
1 39155U 13019A   24084.27835628  .00000064  00000+0  00000+0 0  9994
2 39155  65.0089 101.0397 0024734 237.3901 122.4282  2.13101868 84912
COSMOS 2492 (754)       
1 39620U 14012A   24087.04939916 -.00000055  00000+0  00000+0 0  9999
2 39620  65.7026 341.3922 0013921 328.6816  31.2931  2.13103230 77932
COSMOS 2500 (755)       
1 40001U 14032A   24087.22989887 -.00000055  00000+0  00000+0 0  9998
2 40001  65.6400 341.1977 0004317 205.4745 154.5617  2.13106194 76157
COSMOS 2501 (702K)      
1 40315U 14075A   24085.13577643  .00000003  00000+0  00000+0 0  9996
2 40315  63.6268 218.5972 0018979 205.2915 154.5800  2.13101457 72509
COSMOS 2514 (751)       
1 41330U 16008A   24087.46422388 -.00000054  00000+0  00000+0 0  9992
2 41330  65.4354 340.7197 0008261 214.3416 145.6628  2.13102765 63322
COSMOS 2522 (752)       
1 42939U 17055A   24087.77416829  .00000033  00000+0  00000+0 0  9994
2 42939  64.0873 219.5493 0006675 232.8836 127.0304  2.13101873 50688
COSMOS 2527 (756)       
1 43508U 18053A   24087.26387474  .00000055  00000+0  00000+0 0  9997
2 43508  65.1706 101.0740 0009986 244.1019 115.8404  2.13102440 44977
COSMOS 2529 (757)       
1 43687U 18086A   24087.36296656  .00000029  00000+0  00000+0 0  9994
2 43687  64.3026 220.0540 0007882 260.9342  98.9488  2.13102088 41988
COSMOS 2534 (758)       
1 44299U 19030A   24087.62985545  .00000032  00000+0  00000+0 0  9999
2 44299  64.3758 219.9906 0010267 286.3394  52.4934  2.13102223 37621
COSMOS 2544 (759)       
1 44850U 19088A   24087.20782076  .00000055  00000+0  00000+0 0  9998
2 44850  65.1574 100.9147 0015500 261.1774  98.6921  2.13102238 33410
COSMOS 2545 (760)       
1 45358U 20018A   24086.46631740 -.00000057  00000+0  00000+0 0  9998
2 45358  64.7757 340.8319 0007873 257.6724 102.2960  2.13102650 31340
COSMOS 2547 (705K)      
1 46805U 20075A   24087.12330180  .00000027  00000+0  00000+0 0  9993
2 46805  64.6040 219.6249 0006334 235.8059 124.1057  2.13103103 26604
COSMOS 2557 (706K)      
1 52984U 22075A   24087.28761846 -.00000058  00000+0  00000+0 0  9999
2 52984  64.6991 342.9417 0012090 287.7928  72.1308  2.13101876 13419
COSMOS 2559 (707K)      
1 54031U 22130A   24087.23025164 -.00000058  00000+0  00000+0 0  9997
2 54031  64.6708 343.0640 0005069 232.1759 127.8333  2.13101211 11387
COSMOS 2564 (761)       
1 54377U 22161A   24086.95255118  .00000025  00000+0  00000+0 0  9999
2 54377  64.7456 219.7204 0008449 211.6557 148.2643  2.13102104 10325
COSMOS 2569 (703K)      
1 57517U 23114A   24087.43973132  .00000054  00000+0  00000+0 0  9996
2 57517  64.8840 100.0858 0012826 293.9666  65.9418  2.13103962  4968
